[{"OBJECT_NAME":"STARLINK-35485","OBJECT_ID":"2025-245T","EPOCH":"2026-03-09T20:34:31.389600","MEAN_MOTION":15.30187722,"ECCENTRICITY":0.00010902,"INCLINATION":53.1586,"RA_OF_ASC_NODE":283.0093,"ARG_OF_PERICENTER":152.8442,"MEAN_ANOMALY":207.2616,"EPHEMERIS_TYPE":0,"CLASSIFICATION_TYPE":"U","NORAD_CAT_ID":66251,"ELEMENT_SET_NO":999,"REV_AT_EPOCH":2106,"BSTAR":0.0014295218,"MEAN_MOTION_DOT":0.00042204,"MEAN_MOTION_DDOT":0},{"OBJECT_NAME":"SL-3 R\/B","OBJECT_ID":"1981-065B","EPOCH":"2026-03-09T21:58:16.284000","MEAN_MOTION":15.33300883,"ECCENTRICITY":0.00117648,"INCLINATION":97.6337,"RA_OF_ASC_NODE":111.1786,"ARG_OF_PERICENTER":10.529,"MEAN_ANOMALY":349.6196,"EPHEMERIS_TYPE":0,"CLASSIFICATION_TYPE":"U","NORAD_CAT_ID":12586,"ELEMENT_SET_NO":999,"REV_AT_EPOCH":43499,"BSTAR":0.00030084921,"MEAN_MOTION_DOT":9.62e-5,"MEAN_MOTION_DDOT":0}]
